[{"OBJECT_NAME":"POLYITAN-1","OBJECT_ID":"2014-033AJ","EPOCH":"2026-03-09T22:27:50.258304","MEAN_MOTION":15.29568085,"ECCENTRICITY":0.00093607,"INCLINATION":98.1053,"RA_OF_ASC_NODE":86.0432,"ARG_OF_PERICENTER":127.248,"MEAN_ANOMALY":232.9614,"EPHEMERIS_TYPE":0,"CLASSIFICATION_TYPE":"U","NORAD_CAT_ID":40042,"ELEMENT_SET_NO":999,"REV_AT_EPOCH":63840,"BSTAR":0.00083772474,"MEAN_MOTION_DOT":0.00024003,"MEAN_MOTION_DDOT":0},{"OBJECT_NAME":"STARLINK-31293","OBJECT_ID":"2024-027X","EPOCH":"2026-03-09T22:01:04.989504","MEAN_MOTION":15.30219237,"ECCENTRICITY":9.693e-5,"INCLINATION":53.1622,"RA_OF_ASC_NODE":308.5279,"ARG_OF_PERICENTER":86.4007,"MEAN_ANOMALY":273.7105,"EPHEMERIS_TYPE":0,"CLASSIFICATION_TYPE":"U","NORAD_CAT_ID":58952,"ELEMENT_SET_NO":999,"REV_AT_EPOCH":11736,"BSTAR":-0.00023460942,"MEAN_MOTION_DOT":-7.305e-5,"MEAN_MOTION_DDOT":0}]
